{{Infobox Planet  
| name = 860 Ursina
| image = 
| caption = 
| discovery=yes | physical_characteristics = yes | bgcolour=#FFFFC0
| discovery_ref = 
| discoverer = [[马克斯·沃夫|马克斯·沃夫]]
| discovery_site = [[海德堡|海德堡]]
| discovered =  1917年1月22日
| mp_name = 860
| alt_names = 1917 BD
| named_after = 
| mp_category=[[小行星带|主带小行星]]
| orbit_ref = <ref>[http://ssd.jpl.nasa.gov/sbdb.cgi?sstr=860 860 Ursina (1917 BD)]</ref>
| epoch = 2013年4月18日
| semimajor= 2.795940296792109AU
| perihelion= 2.497621208976626AU
| aphelion= 3.094259384607592[[天文单位|AU]]
| eccentricity =0.1066972310380719			
| period = 1707.616203073593[[日|地球日]]<br>4.68[[年|地球年]] 
| inclination=13.32084621947016[[角度|°]]
| asc_node=309.4593425051228°
| arg_peri=19.78329703009337°	
| mean_anomaly=356.7930170741227°
| avg_speed=
 | dimensions= 29.32千米
 | mass=
 | density=
 | surface_grav=
 | escape_velocity=
 | rotation=9.386小时
 | spectral_type=[[M-型小行星|M型]]<br>[[X-型小行星|X型]]
 | magnitude=
 | abs_magnitude=10.26
 | albedo=0.1618
 | single_temperature=
}}
'''小行星860'''（'''860 Ursina'''），是由[[德国|德国]][[天文学家|天文学家]][[马克斯·沃夫|马克斯·沃夫]]于1917年1月22日在德国[[海德堡|海德堡]][[王座山天文台|王座山天文台]]发现的[[小行星带|主带]][[小行星|小行星]]。

小行星860的命名依据不详。

== 参考资料 ==
{{Reflist}}

{{Minor Planet Number|(859)[[小行星859|小行星859]]|(861)[[小行星861|小行星861]]}}

[[Category:小行星带天体|Category:小行星带天体]]
[[Category:1917年发现的小行星|Category:1917年发现的小行星]]
[[Category:M-型小行星|Category:M-型小行星]]
[[Category:X-型小行星|Category:X-型小行星]]